{
  "type": "FeatureCollection",
  "features": [
    {
      "type": "Feature",
      "properties": {
        "norad_id": 67105,
        "name": "STARLINK-36261",
        "group": "last-30-days",
        "lat": -11.44675365359634,
        "lon": -145.43844109765564,
        "alt_km": 343.549085776579,
        "timestamp": "2025-12-27T08:36:17.081353+00:00",
        "meta_object_name": "STARLINK-36261",
        "meta_object_id": "2025-299D",
        "meta_epoch": "2025-12-27T04:00:01.998720",
        "meta_mean_motion": 15.76357152,
        "meta_eccentricity": 0.0001888,
        "meta_inclination": 42.9984,
        "meta_ra_of_asc_node": 228.2784,
        "meta_arg_of_pericenter": 273.3034,
        "meta_mean_anomaly": 60.0899,
        "meta_ephemeris_type": 0,
        "meta_classification_type": "U",
        "meta_norad_cat_id": 67105,
        "meta_element_set_no": 999,
        "meta_rev_at_epoch": 312,
        "meta_bstar": -0.012445,
        "meta_mean_motion_dot": -0.01780496,
        "meta_mean_motion_ddot": 0,
        "tle_line1": "1 67105U 25299D   25361.16668980 -.01780496  00000+0 -12445-1 0  9990",
        "tle_line2": "2 67105  42.9984 228.2784 0001888 273.3034  60.0899 15.76357152  3127"
      },
      "geometry": {
        "type": "Point",
        "coordinates": [
          -145.43844109765564,
          -11.44675365359634
        ]
      }
    },
    {
      "type": "Feature",
      "properties": {
        "norad_id": 67106,
        "name": "STARLINK-36259",
        "group": "last-30-days",
        "lat": -9.161022422012705,
        "lon": -142.86266459281123,
        "alt_km": 343.5095587278838,
        "timestamp": "2025-12-27T08:36:17.081363+00:00",
        "meta_object_name": "STARLINK-36259",
        "meta_object_id": "2025-299E",
        "meta_epoch": "2025-12-27T04:00:01.998720",
        "meta_mean_motion": 15.76380653,
        "meta_eccentricity": 0.0001829,
        "meta_inclination": 42.9985,
        "meta_ra_of_asc_node": 228.2697,
        "meta_arg_of_pericenter": 266.119,
        "meta_mean_anomaly": 70.6789,
        "meta_ephemeris_type": 0,
        "meta_classification_type": "U",
        "meta_norad_cat_id": 67106,
        "meta_element_set_no": 999,
        "meta_rev_at_epoch": 312,
        "meta_bstar": -0.012501,
        "meta_mean_motion_dot": -0.01789042,
        "meta_mean_motion_ddot": 0,
        "tle_line1": "1 67106U 25299E   25361.16668980 -.01789042  00000+0 -12501-1 0  9990",
        "tle_line2": "2 67106  42.9985 228.2697 0001829 266.1190  70.6789 15.76380653  3127"
      },
      "geometry": {
        "type": "Point",
        "coordinates": [
          -142.86266459281123,
          -9.161022422012705
        ]
      }
    },
    {
      "type": "Feature",
      "properties": {
        "norad_id": 67107,
        "name": "STARLINK-36196",
        "group": "last-30-days",
        "lat": -10.349591606846078,
        "lon": -144.19412942201677,
        "alt_km": 343.60850051293255,
        "timestamp": "2025-12-27T08:36:17.081373+00:00",
        "meta_object_name": "STARLINK-36196",
        "meta_object_id": "2025-299F",
        "meta_epoch": "2025-12-27T04:00:01.998720",
        "meta_mean_motion": 15.76369125,
        "meta_eccentricity": 0.0001764,
        "meta_inclination": 42.9986,
        "meta_ra_of_asc_node": 228.2745,
        "meta_arg_of_pericenter": 266.9136,
        "meta_mean_anomaly": 68.117,
        "meta_ephemeris_type": 0,
        "meta_classification_type": "U",
        "meta_norad_cat_id": 67107,
        "meta_element_set_no": 999,
        "meta_rev_at_epoch": 312,
        "meta_bstar": -0.012423,
        "meta_mean_motion_dot": -0.01778456,
        "meta_mean_motion_ddot": 0,
        "tle_line1": "1 67107U 25299F   25361.16668980 -.01778456  00000+0 -12423-1 0  9991",
        "tle_line2": "2 67107  42.9986 228.2745 0001764 266.9136  68.1170 15.76369125  3126"
      },
      "geometry": {
        "type": "Point",
        "coordinates": [
          -144.19412942201677,
          -10.349591606846078
        ]
      }
    },
    {
      "type": "Feature",
      "properties": {
        "norad_id": 67108,
        "name": "STARLINK-36208",
        "group": "last-30-days",
        "lat": -7.9768661941648125,
        "lon": -141.55005431783994,
        "alt_km": 343.4010153425579,
        "timestamp": "2025-12-27T08:36:17.081385+00:00",
        "meta_object_name": "STARLINK-36208",
        "meta_object_id": "2025-299G",
        "meta_epoch": "2025-12-27T04:00:01.998720",
        "meta_mean_motion": 15.7638668,
        "meta_eccentricity": 0.0001825,
        "meta_inclination": 42.9985,
        "meta_ra_of_asc_node": 228.2652,
        "meta_arg_of_pericenter": 265.9128,
        "meta_mean_anomaly": 72.6409,
        "meta_ephemeris_type": 0,
        "meta_classification_type": "U",
        "meta_norad_cat_id": 67108,
        "meta_element_set_no": 999,
        "meta_rev_at_epoch": 312,
        "meta_bstar": -0.01247,
        "meta_mean_motion_dot": -0.0178561,
        "meta_mean_motion_ddot": 0,
        "tle_line1": "1 67108U 25299G   25361.16668980 -.01785610  00000+0 -12470-1 0  9994",
        "tle_line2": "2 67108  42.9985 228.2652 0001825 265.9128  72.6409 15.76386680  3121"
      },
      "geometry": {
        "type": "Point",
        "coordinates": [
          -141.55005431783994,
          -7.9768661941648125
        ]
      }
    },
    {
      "type": "Feature",
      "properties": {
        "norad_id": 67109,
        "name": "STARLINK-35764",
        "group": "last-30-days",
        "lat": -6.71042975401178,
        "lon": -140.1593827035929,
        "alt_km": 343.1900422544704,
        "timestamp": "2025-12-27T08:36:17.081397+00:00",
        "meta_object_name": "STARLINK-35764",
        "meta_object_id": "2025-299H",
        "meta_epoch": "2025-12-27T04:00:01.998720",
        "meta_mean_motion": 15.76334584,
        "meta_eccentricity": 0.0002198,
        "meta_inclination": 42.9984,
        "meta_ra_of_asc_node": 228.2606,
        "meta_arg_of_pericenter": 270.9451,
        "meta_mean_anomaly": 69.5068,
        "meta_ephemeris_type": 0,
        "meta_classification_type": "U",
        "meta_norad_cat_id": 67109,
        "meta_element_set_no": 999,
        "meta_rev_at_epoch": 302,
        "meta_bstar": -0.012021,
        "meta_mean_motion_dot": -0.0172569,
        "meta_mean_motion_ddot": 0,
        "tle_line1": "1 67109U 25299H   25361.16668980 -.01725690  00000+0 -12021-1 0  9999",
        "tle_line2": "2 67109  42.9984 228.2606 0002198 270.9451  69.5068 15.76334584  3020"
      },
      "geometry": {
        "type": "Point",
        "coordinates": [
          -140.1593827035929,
          -6.71042975401178
        ]
      }
    },
    {
      "type": "Feature",
      "properties": {
        "norad_id": 67110,
        "name": "STARLINK-35781",
        "group": "last-30-days",
        "lat": -4.255364154271642,
        "lon": -137.49441748330503,
        "alt_km": 343.0449461749813,
        "timestamp": "2025-12-27T08:36:17.081407+00:00",
        "meta_object_name": "STARLINK-35781",
        "meta_object_id": "2025-299J",
        "meta_epoch": "2025-12-27T04:00:01.998720",
        "meta_mean_motion": 15.76394142,
        "meta_eccentricity": 0.000171,
        "meta_inclination": 42.9987,
        "meta_ra_of_asc_node": 228.2516,
        "meta_arg_of_pericenter": 266.7447,
        "meta_mean_anomaly": 77.3012,
        "meta_ephemeris_type": 0,
        "meta_classification_type": "U",
        "meta_norad_cat_id": 67110,
        "meta_element_set_no": 999,
        "meta_rev_at_epoch": 308,
        "meta_bstar": -0.012407,
        "meta_mean_motion_dot": -0.01778169,
        "meta_mean_motion_ddot": 0,
        "tle_line1": "1 67110U 25299J   25361.16668980 -.01778169  00000+0 -12407-1 0  9998",
        "tle_line2": "2 67110  42.9987 228.2516 0001710 266.7447  77.3012 15.76394142  3080"
      },
      "geometry": {
        "type": "Point",
        "coordinates": [
          -137.49441748330503,
          -4.255364154271642
        ]
      }
    },
    {
      "type": "Feature",
      "properties": {
        "norad_id": 67111,
        "name": "STARLINK-35875",
        "group": "last-30-days",
        "lat": -5.459858553194485,
        "lon": -138.7974431588905,
        "alt_km": 343.1442419914356,
        "timestamp": "2025-12-27T08:36:17.081419+00:00",
        "meta_object_name": "STARLINK-35875",
        "meta_object_id": "2025-299K",
        "meta_epoch": "2025-12-27T04:00:01.998720",
        "meta_mean_motion": 15.76393888,
        "meta_eccentricity": 0.000181,
        "meta_inclination": 42.9987,
        "meta_ra_of_asc_node": 228.2561,
        "meta_arg_of_pericenter": 267.3632,
        "meta_mean_anomaly": 74.9092,
        "meta_ephemeris_type": 0,
        "meta_classification_type": "U",
        "meta_norad_cat_id": 67111,
        "meta_element_set_no": 999,
        "meta_rev_at_epoch": 302,
        "meta_bstar": -0.012494,
        "meta_mean_motion_dot": -0.01789077,
        "meta_mean_motion_ddot": 0,
        "tle_line1": "1 67111U 25299K   25361.16668980 -.01789077  00000+0 -12494-1 0  9995",
        "tle_line2": "2 67111  42.9987 228.2561 0001810 267.3632  74.9092 15.76393888  3026"
      },
      "geometry": {
        "type": "Point",
        "coordinates": [
          -138.7974431588905,
          -5.459858553194485
        ]
      }
    }
  ]
}